CCSDS_OMM_VERS,COMMENT,CREATION_DATE,ORIGINATOR,OBJECT_NAME,OBJECT_ID,CENTER_NAME,REF_FRAME,TIME_SYSTEM,MEAN_ELEMENT_THEORY,EPOCH,MEAN_MOTION,ECCENTRICITY,INCLINATION,RA_OF_ASC_NODE,ARG_OF_PERICENTER,MEAN_ANOMALY,EPHEMERIS_TYPE,CLASSIFICATION_TYPE,NORAD_CAT_ID,ELEMENT_SET_NO,REV_AT_EPOCH,BSTAR,MEAN_MOTION_DOT,MEAN_MOTION_DDOT,SEMIMAJOR_AXIS,PERIOD,APOAPSIS,PERIAPSIS,OBJECT_TYPE,RCS_SIZE,COUNTRY_CODE,LAUNCH_DATE,SITE,DECAY_DATE,FILE,GP_ID,TLE_LINE0,TLE_LINE1,TLE_LINE2
"3.0","GENERATED VIA SPACE-TRACK.ORG API","2025-04-27T20:06:31","18 SPCS","STARLINK-2283","2021-024AP","EARTH","TEME","UTC","SGP4","2025-04-27T18:19:21.894240","16.41855164","0.00074750","53.0371","212.7690","342.1376","153.4668","0","U","48014","999","22783","0.00081457000000","0.14302167","0.0000125330000","6539.009","87.706","165.762","155.986","PAYLOAD","LARGE","US","2021-03-24","AFETR","2025-04-28","4714071","286475354","0 STARLINK-2283","1 48014U 21024AP  25117.76344785  .14302167  12533-4  81457-3 0  9996","2 48014  53.0371 212.7690 0007475 342.1376 153.4668 16.41855164227830"
"3.0","GENERATED VIA SPACE-TRACK.ORG API","2025-04-28T14:26:36","18 SPCS","KUIPER-P2","2023-154A","EARTH","TEME","UTC","SGP4","2025-04-28T14:00:01.999872","15.97756228","0.00030530","29.9535","181.0087","52.3598","284.3262","0","U","58013","999","8777","0.00098019000000","0.00468493","0.0000829890000","6658.782","90.126","282.680","278.615","PAYLOAD","LARGE","US","2023-10-06","AFETR","2025-04-29","4714787","286521830","0 KUIPER-P2","1 58013U 23154A   25118.58335648  .00468493  82989-4  98019-3 0  9995","2 58013  29.9535 181.0087 0003053  52.3598 284.3262 15.97756228 87778"
"3.0","GENERATED VIA SPACE-TRACK.ORG API","2025-05-02T02:33:21","18 SPCS","OBJECT AJ","2023-091AJ","EARTH","TEME","UTC","SGP4","2025-04-28T15:43:59.850048","16.43267910","0.00192920","97.5311","190.2347","248.7344","111.1897","0","U","57198","999","10214","0.00051427000000","0.17641818","0.0000026040000","6535.261","87.630","169.734","144.518","UNKNOWN","MEDIUM","TBD","2023-06-27","VOSTO","2025-04-28","4716572","286618637","0 OBJECT AJ","1 57198U 23091AJ  25118.65555382  .17641818  26040-5  51427-3 0  9996","2 57198  97.5311 190.2347 0019292 248.7344 111.1897 16.43267910102144"
"3.0","GENERATED VIA SPACE-TRACK.ORG API","2025-04-29T04:36:42","18 SPCS","STARLINK-1976","2021-009AC","EARTH","TEME","UTC","SGP4","2025-04-28T22:44:42.213120","16.31994009","0.00097810","53.0246","316.8777","282.0774","231.2428","0","U","47574","999","23448","0.00103500000000","0.05970928","0.0000121610000","6565.324","88.236","193.610","180.767","PAYLOAD","LARGE","US","2021-02-04","AFETR","2025-04-29","4715286","286546300","0 STARLINK-1976","1 47574U 21009AC  25118.94771080  .05970928  12161-4  10350-2 0  9998","2 47574  53.0246 316.8777 0009781 282.0774 231.2428 16.31994009234488"
"3.0","GENERATED VIA SPACE-TRACK.ORG API","2025-04-29T01:16:16","18 SPCS","STARLINK-1696","2020-070P","EARTH","TEME","UTC","SGP4","2025-04-29T00:34:10.925184","16.46478098","0.00053230","53.0179","105.6885","252.4592","221.6678","0","U","46545","999","25268","0.00045925000000","0.21375455","0.0000125160000","6526.763","87.459","152.103","145.154","PAYLOAD","LARGE","US","2020-10-06","AFETR","2025-04-29","4715282","286533792","0 STARLINK-1696","1 46545U 20070P   25119.02373756  .21375455  12516-4  45925-3 0  9993","2 46545  53.0179 105.6885 0005323 252.4592 221.6678 16.46478098252684"
"3.0","GENERATED VIA SPACE-TRACK.ORG API","2025-05-02T02:33:21","18 SPCS","CZ-6A DEB","2024-140WD","EARTH","TEME","UTC","SGP4","2025-04-29T06:51:25.829568","15.77631770","0.00146110","89.1201","323.3637","194.0444","166.0428","0","U","61364","999","3541","0.02480700000000","0.04951500","0.0000000000000","6715.290","91.276","346.966","327.343","DEBRIS","SMALL","PRC","2024-08-06","TSC","2025-05-06","4716572","286621442","0 CZ-6A DEB","1 61364U 24140WD  25119.28571562  .04951500  00000-0  24807-1 0  9991","2 61364  89.1201 323.3637 0014611 194.0444 166.0428 15.77631770 35413"
"3.0","GENERATED VIA SPACE-TRACK.ORG API","2025-05-02T02:33:21","18 SPCS","CZ-6A DEB","2024-140ST","EARTH","TEME","UTC","SGP4","2025-04-29T09:33:45.742176","15.96070450","0.00065760","89.2514","327.8483","204.6302","155.4672","0","U","61282","999","3652","0.02729200000000","0.07831353","0.1313500000000","6663.470","90.222","289.717","280.953","DEBRIS","SMALL","PRC","2024-08-06","TSC","2025-05-06","4716572","286621408","0 CZ-6A DEB","1 61282U 24140ST  25119.39844609  .07831353  13135+0  27292-1 0  9996","2 61282  89.2514 327.8483 0006576 204.6302 155.4672 15.96070450 36529"
"3.0","GENERATED VIA SPACE-TRACK.ORG API","2025-05-02T02:33:21","18 SPCS","STARLINK-4449","2022-105U","EARTH","TEME","UTC","SGP4","2025-04-29T10:56:26.733408","16.25857663","0.00056830","97.6348","7.3349","239.1167","120.9566","0","U","53666","999","14664","0.00127620000000","0.03847239","0.0000026241000","6581.833","88.569","207.438","199.957","PAYLOAD","LARGE","US","2022-08-31","AFWTR","2025-05-01","4716572","286615751","0 STARLINK-4449","1 53666U 22105U   25119.45586497  .03847239  26241-5  12762-2 0  9998","2 53666  97.6348   7.3349 0005683 239.1167 120.9566 16.25857663146641"
"3.0","GENERATED VIA SPACE-TRACK.ORG API","2025-05-02T02:33:21","18 SPCS","FENGYUN 1C DEB","1999-025AZN","EARTH","TEME","UTC","SGP4","2025-04-29T11:24:13.188096","15.74801354","0.00272670","98.9162","296.8390","295.9049","63.9401","0","U","30924","999","93975","0.02985400000000","0.05430769","0.0000000000000","6723.334","91.440","363.531","326.866","DEBRIS","SMALL","PRC","1999-05-10","TSC","2025-05-06","4716572","286603553","0 FENGYUN 1C DEB","1 30924U 99025AZN 25119.47515264  .05430769  00000-0  29854-1 0  9998","2 30924  98.9162 296.8390 0027267 295.9049  63.9401 15.74801354939758"
"3.0","GENERATED VIA SPACE-TRACK.ORG API","2025-05-02T02:33:21","18 SPCS","STARLINK-1565","2020-055L","EARTH","TEME","UTC","SGP4","2025-04-29T15:43:45.020352","16.34006915","0.00088950","53.0143","53.6399","217.4647","142.5777","0","U","46037","999","26215","0.00252980000000","0.17888121","0.0000120800000","6559.931","88.127","187.631","175.961","PAYLOAD","LARGE","US","2020-08-07","AFETR","2025-04-30","4716572","286611494","0 STARLINK-1565","1 46037U 20055L   25119.65538218  .17888121  12080-4  25298-2 0  9997","2 46037  53.0143  53.6399 0008895 217.4647 142.5777 16.34006915262158"
"3.0","GENERATED VIA SPACE-TRACK.ORG API","2025-05-02T02:33:21","18 SPCS","STARLINK-1103","2020-001H","EARTH","TEME","UTC","SGP4","2025-04-29T19:51:21.474432","16.41044111","0.00096060","53.0260","249.9291","302.6702","57.3417","0","U","44921","999","29343","0.00043848000000","0.07010416","0.0000124670000","6541.163","87.749","169.312","156.745","PAYLOAD","LARGE","US","2020-01-07","AFETR","2025-04-30","4716572","286611170","0 STARLINK-1103","1 44921U 20001H   25119.82733188  .07010416  12467-4  43848-3 0  9994","2 44921  53.0260 249.9291 0009606 302.6702  57.3417 16.41044111293436"
"3.0","GENERATED VIA SPACE-TRACK.ORG API","2025-05-02T02:33:21","18 SPCS","CZ-4C R/B","2022-018B","EARTH","TEME","UTC","SGP4","2025-04-29T21:40:56.801280","16.52039042","0.00179470","97.6911","217.4421","257.5279","102.4018","0","U","51823","999","17792","0.00009560800000","0.12756265","0.0000027966000","6512.109","87.165","145.661","122.286","ROCKET BODY","LARGE","PRC","2022-02-26","JSC","2025-04-30","4716572","286614179","0 CZ-4C R/B","1 51823U 22018B   25119.90343520  .12756265  27966-5  95608-4 0  9997","2 51823  97.6911 217.4421 0017947 257.5279 102.4018 16.52039042177924"
"3.0","GENERATED VIA SPACE-TRACK.ORG API","2026-06-23T03:40:42","18 SPCS","THORAD AGENA D DEB","1970-025QV","EARTH","TEME","UTC","SGP4","2025-04-29T22:47:30.079680","13.67524692","0.00088824","99.9910","23.0749","192.2264","228.6875","0","U","42491","999","57003","0.00088641528000","0.00000700","0.0000000000000","7386.608","105.300","1015.034","1001.912","DEBRIS","MEDIUM","US","1970-04-08","AFWTR","","5257616","330961181","0 THORAD AGENA D DEB","1 42491U 70025QV  25119.94965370  .00000700  00000-0  88642-3 0  9993","2 42491  99.9910  23.0749 0008882 192.2264 228.6875 13.67524692570034"
"3.0","GENERATED VIA SPACE-TRACK.ORG API","2025-05-06T03:54:54","18 SPCS","BREEZE-M DEB","2008-011H","EARTH","TEME","UTC","SGP4","2025-04-30T00:12:17.830944","3.23496838","0.61780800","48.3052","16.5204","281.0316","19.2407","0","U","37203","999","16939","0.00000000000000","-0.00000080","0.0000000000000","19311.758","445.136","24864.582","1002.664","DEBRIS","MEDIUM","CIS","2008-03-14","TTMTR","","4720394","286931679","0 BREEZE-M DEB","1 37203U 08011H   25120.00853971 -.00000080  00000-0  00000-0 0  9997","2 37203  48.3052  16.5204 6178080 281.0316  19.2407  3.23496838169395"
"3.0","GENERATED VIA SPACE-TRACK.ORG API","2025-05-02T02:33:21","18 SPCS","STARLINK-1920","2020-074N","EARTH","TEME","UTC","SGP4","2025-04-30T00:50:46.134816","16.35945919","0.00123100","53.0036","225.1856","63.3408","296.8895","0","U","46751","999","25014","0.00205790000000","0.18218911","0.0000123450000","6554.746","88.022","184.680","168.542","PAYLOAD","LARGE","US","2020-10-24","AFETR","2025-04-30","4716572","286612170","0 STARLINK-1920","1 46751U 20074N   25120.03525619  .18218911  12345-4  20579-2 0  9992","2 46751  53.0036 225.1856 0012310  63.3408 296.8895 16.35945919250143"
"3.0","GENERATED VIA SPACE-TRACK.ORG API","2025-05-02T02:33:21","18 SPCS","STARLINK-5967","2023-058P","EARTH","TEME","UTC","SGP4","2025-04-30T01:38:51.748800","16.36616867","0.00133810","97.6293","130.6924","213.4301","146.6153","0","U","56330","999","11160","0.00069160000000","0.06015122","0.0000026787000","6552.955","87.986","183.588","166.051","PAYLOAD","LARGE","US","2023-04-27","AFWTR","2025-04-30","4716572","286617777","0 STARLINK-5967","1 56330U 23058P   25120.06865450  .06015122  26787-5  69160-3 0  9996","2 56330  97.6293 130.6924 0013381 213.4301 146.6153 16.36616867111605"
